{"type":"FeatureCollection","features":[
{"type":"Feature","properties":{"name":"Atlanta","layer":"cities","kind":"city","lesson":"Georgia’s capital and a major population, transportation, and economic center."},"geometry":{"type":"Point","coordinates":[-84.3880,33.7490]}},
{"type":"Feature","properties":{"name":"Savannah","layer":"cities","kind":"city","lesson":"A coastal city connected to Georgia history, the Savannah River, and maritime trade."},"geometry":{"type":"Point","coordinates":[-81.0912,32.0809]}},
{"type":"Feature","properties":{"name":"Columbus","layer":"cities","kind":"city","lesson":"A west Georgia city on the Chattahoochee River."},"geometry":{"type":"Point","coordinates":[-84.9877,32.4609]}},
{"type":"Feature","properties":{"name":"Lake Lanier / Buford area","layer":"water","kind":"reservoir","lesson":"A major reservoir area on the Chattahoochee system in north Georgia."},"geometry":{"type":"Point","coordinates":[-84.0600,34.2000]}},
{"type":"Feature","properties":{"name":"Chattahoochee River study point","layer":"water","kind":"river","lesson":"Study how a river connects watersheds, drinking-water systems, recreation, cities, and downstream communities."},"geometry":{"type":"Point","coordinates":[-84.5700,33.8000]}},
{"type":"Feature","properties":{"name":"Port of Savannah study point","layer":"infra","kind":"port","lesson":"Use this location to study how ports connect Georgia to road, rail, warehousing, and global trade."},"geometry":{"type":"Point","coordinates":[-81.1150,32.1150]}},
{"type":"Feature","properties":{"name":"Blue Ridge region study point","layer":"regions","kind":"region","lesson":"Use this point as a gateway to study mountains, elevation, headwaters, and north Georgia communities."},"geometry":{"type":"Point","coordinates":[-84.3000,34.8500]}},
{"type":"Feature","properties":{"name":"Piedmont region study point","layer":"regions","kind":"region","lesson":"Study rolling uplands, major population centers, and the relationship between landform and urban development."},"geometry":{"type":"Point","coordinates":[-83.9000,33.5000]}},
{"type":"Feature","properties":{"name":"Coastal Plain study point","layer":"regions","kind":"region","lesson":"Study flatter terrain, agriculture, wetlands, rivers, coastal systems, and transportation corridors."},"geometry":{"type":"Point","coordinates":[-82.5000,31.5000]}}
]}
